CP11 (ISX)              
1 43856U 18104H   23320.73535833  .00045680  00000+0  81909-3 0  9999
2 43856  85.0227  64.5070 0008298 153.4133 206.7551 15.49704901273773
ISAT                    
1 43879U 18111D   23320.29401729  .00008334  00000+0  58781-3 0  9996
2 43879  97.6303 222.7544 0015050  14.3704 345.7947 15.05132885267199
UWE-4                   
1 43880U 18111E   23320.71850679  .00006351  00000+0  45353-3 0  9995
2 43880  97.6227 223.6454 0019072  22.3967 337.8088 15.04709515267281
D-STAR ONE (SPARROW)    
1 43881U 18111F   23321.45903893  .00006492  00000+0  45407-3 0  9991
2 43881  97.6382 225.4549 0013004  52.6804 307.5605 15.05559118265420
LEMUR-2-TINYKEV         
1 43883U 18111H   23321.25005406  .00013207  00000+0  76795-3 0  9990
2 43883  97.6210 228.2007 0008917 355.5411   4.5738 15.12167830265614
LEMUR-2-REMY-COLTON     
1 43884U 18111J   23321.00085051  .00011677  00000+0  71376-3 0  9997
2 43884  97.6356 228.7726 0002721  46.1009 314.0444 15.10417534265588
ZACUBE-2                
1 43907U 18111AH  23321.50071176  .00041197  00000+0  65166-3 0  9991
2 43907  97.1056 198.3659 0013377  26.3582 333.8350 15.53244069272837
LUME 1                  
1 43908U 18111AJ  23321.43121509  .00078835  00000+0  78811-3 0  9990
2 43908  97.1067 203.7703 0009284  20.4634 339.6997 15.65296451273181
MICRODRAGON             
1 43935U 19003D   23321.00308792  .00023715  00000+0  56257-3 0  9992
2 43935  97.0948 335.5284 0013881 113.4160 246.8549 15.41616498268919
JILIN-1 09              
1 43943U 19005B   23321.49479144  .00004249  00000+0  23489-3 0  9998
2 43943  97.4951  53.1702 0017712 325.5175  34.4906 15.14294496266278
JILIN-1 10              
1 43946U 19005E   23321.52955872  .00004479  00000+0  24543-3 0  9999
2 43946  97.4951  53.2409 0030399 319.2498  40.6459 15.14324007266207
EGYPTSAT-A (MISRSAT-A)  
1 44047U 19008A   23321.45317833  .00000770  00000+0  12943-3 0  9997
2 44047  98.0151  23.7570 0001012 105.8104 254.3215 14.72357222254527
EMISAT                  
1 44078U 19018A   23321.43705898  .00000299  00000+0  10062-3 0  9998
2 44078  98.3694  19.6668 0018672 184.5375 175.5649 14.43724058244024
ASTROCAST 0.2           
1 44083U 19018F   23321.15694603  .02553745  23369-5  11326-2 0  9997
2 44083  97.2212  25.9120 0004644 268.5815  91.4944 16.22347148258370
AISTECHSAT-3            
1 44103U 19018AB  23321.44822897  .00044392  00000+0  68076-3 0  9997
2 44103  97.2283  19.8255 0007184  78.2734 281.9325 15.54161070258191
AIS & APRS & ARIS & R/B 
1 44104U 19018AC  23320.86534178  .00032649  00000+0  45035-3 0  9997
2 44104  97.3719  55.8830 0032392  59.1363 301.3071 15.56503268259389
JILIN-1 GAOFEN 3A       
1 44312U 19032C   23321.50708375  .00005353  00000+0  36113-3 0  9997
2 44312  44.9860  42.1067 0013411 340.7158  19.3208 15.07605560244520
XIAOXIANG 4             
1 44313U 19032D   23321.51223848  .00007976  00000+0  47532-3 0  9996
2 44313  44.9947  35.7010 0014700 340.8812  19.1511 15.11595851244625
WT 1A                   
1 44315U 19032F   23321.41666436  .00006875  00000+0  42256-3 0  9996
2 44315  44.9815  29.5501 0016117 356.9031   3.1743 15.10642582244658
WT 1B                   
1 44316U 19032G   23321.42901725  .00003763  00000+0  28206-3 0  9993
2 44316  44.9824  68.9486 0016753 319.9744  39.9894 15.04290147244163
PROX-1                  
1 44339U 19036A   23320.86887639  .00006579  00000+0  12418-2 0  9991
2 44339  23.9988 152.1385 0009253 149.2677 210.8359 14.61997207234030
NPSAT1                  
1 44340U 19036B   23321.22729661  .00004122  00000+0  82267-3 0  9996
2 44340  23.9988 165.2602 0009945 120.6479 239.4994 14.58573624233939
FORMOSAT 7-3            
1 44343U 19036E   23320.99011806  .00006666  00000+0  35670-3 0  9998
2 44343  23.9986 177.8299 0003918 253.2642 106.7432 15.12088856240738
FORMOSAT 7-1            
1 44349U 19036L   23320.79191956  .00007396  00000+0  39813-3 0  9991
2 44349  24.0013 355.1959 0004715 132.3574 227.7330 15.12064191242388
FORMOSAT 7-4            
1 44350U 19036M   23320.61519404  .00007020  00000+0  37727-3 0  9992
2 44350  24.0004  58.4929 0000914 121.3936 238.6658 15.12050857241777
FORMOSAT 7-2            
1 44351U 19036N   23321.49540331  .00006575  00000+0  35147-3 0  9991
2 44351  23.9982 106.7446 0003404 254.6454 105.3674 15.12101117241475
FORMOSAT 7-6            
1 44353U 19036Q   23320.24211748  .00007999  00000+0  43189-3 0  9998
2 44353  24.0005 296.2323 0006304 253.0456 106.9357 15.12075254239464
FORMOSAT 7-5            
1 44358U 19036V   23321.14362856  .00007418  00000+0  39901-3 0  9993
2 44358  23.9995 229.7742 0004828 268.6266  91.3685 15.12098482240204
METEOR-M2 2             
1 44387U 19038A   23321.50943849  .00000059  00000+0  45293-4 0  9990
2 44387  98.7982 285.2560 0000982 161.0900 199.0315 14.23825859227124
NSL-1                   
1 44391U 19038E   23320.91192594  .00030445  00000+0  13075-2 0  9995
2 44391  97.8876 309.4560 0011208 252.5124 107.4887 15.22584472239344
VDNH-80                 
1 44392U 19038G   23321.47734078  .00028495  00000+0  71758-3 0  9992
2 44392  97.6844 308.7540 0015479 109.6997 250.5920 15.39751335241806
D-STAR ONE (LIGHTSAT)   
1 44393U 19038H   23321.46004346  .00033341  00000+0  79912-3 0  9996
2 44393  97.6840 309.0562 0015477 108.3151 251.9780 15.41219756242020
AMGU-1 (AMURSAT)        
1 44394U 19038J   23321.17727545  .00043390  00000+0  92028-3 0  9996
2 44394  97.6806 309.5810 0014520 105.1578 255.1276 15.44827797242041
LEMUR-2-LILLYJO         
1 44396U 19038L   23320.90909591  .00104119  00000+0  14849-2 0  9992
2 44396  97.6423 310.4739 0019368  89.0071 271.3402 15.55722665242234
MOVE-IIB                
1 44398U 19038N   23319.79115340  .00423757  00000+0  20123-2 0  9994
2 44398  97.6645 313.0009 0012854 104.4068 255.8627 15.81730181242206
SONATE                  
1 44400U 19038Q   23321.17364265  .00011652  00000+0  46073-3 0  9995
2 44400  97.7004 302.5327 0020559 132.1093 228.1896 15.25448964241521
2019-038R               
1 44401U 19038R   23321.46927953  .00050549  00000+0  96139-3 0  9993
2 44401  97.6800 310.1081 0016388 100.4663 259.8434 15.47938616242109
LEMUR-2-WANLI           
1 44402U 19038S   23321.44413142  .00097853  00000+0  12976-2 0  9997
2 44402  97.6411 311.4148 0017253  86.5456 273.7772 15.57753742242344
SOKRAT                  
1 44404U 19038U   23320.71997185  .00042994  00000+0  93230-3 0  9991
2 44404  97.6823 308.4887 0015412 109.7693 250.5217 15.44161318241934
LEMUR-2-DUSTINTHEWIND   
1 44405U 19038V   23320.77999248  .00077717  00000+0  13673-2 0  9993
2 44405  97.6551 309.0881 0019671  87.4647 272.8856 15.49983981242127
LUCKY-7                 
1 44406U 19038W   23320.90416884  .00017245  00000+0  59321-3 0  9990
2 44406  97.6957 304.2887 0019040 123.8302 236.4753 15.29971847241626
LEMUR-2-ALEX-MADDY      
1 44407U 19038X   23320.70181398  .00040896  00000+0  10276-2 0  9991
2 44407  97.6689 306.2863 0017581 111.7384 248.5735 15.39704210241835
LEMUR-2-EJATTA          
1 44409U 19038Z   23321.49761784  .00081200  00000+0  13024-2 0  9991
2 44409  97.6478 311.2397 0018901  81.1713 279.1678 15.52586113242342
LEMUR-2-GREGROBINSON    
1 44411U 19038AB  23321.23656475  .00095539  00000+0  14665-2 0  9998
2 44411  97.6480 311.8458 0020245  99.8967 260.4572 15.53719762241965
BEESAT 9                
1 44412U 19038AC  23320.73287123  .00036939  00000+0  89043-3 0  9995
2 44412  97.6853 307.5695 0015672 112.6743 247.6161 15.41022144241553
LEMUR-2-YNDRD           
1 44413U 19038AD  23320.95192841  .00046065  00000+0  10856-2 0  9998
2 44413  97.6653 306.8501 0017230  99.3415 260.9781 15.41627296241925
JAISAT-1                
1 44419U 19038F   23320.72451045  .00036349  00000+0  87403-3 0  9990
2 44419  97.6839 308.6841 0015314 109.8804 250.4094 15.41106413241939
COSMOS 2535             
1 44421U 19039A   23321.49002203  .00001207  00000+0  13815-3 0  9998
2 44421  97.6990   5.6799 0010466 100.0303 260.2095 14.87717540236163
QIANSHENG 1-01          
1 44486U 19052A   23321.45045862  .00009083  00000+0  43968-3 0  9990
2 44486  97.4401  27.6193 0015349 328.1763  31.8543 15.18695421234345
TIANQI-2                
1 44488U 19052C   23321.43230735  .00016062  00000+0  62738-3 0  9996
2 44488  97.4391  30.5620 0014775 318.2381  41.7729 15.25866074234541
GLOBAL-4                
1 44499U 19054E   23321.43349148  .00008163  00000+0  34557-3 0  9990
2 44499  45.0091  78.4718 0009748  25.5736 334.5626 15.23636685235107
XIAOXIANG 1-07          
1 44519U 19058A   23321.50080030  .00011993  00000+0  83882-3 0  9997
2 44519  97.7986 332.0052 0011528 217.1620 142.8809 15.05388111229617
ZY-1 02D                
1 44528U 19059A   23321.50858136  .00000205  00000+0  86205-4 0  9995
2 44528  98.4349  34.0231 0001660  84.4902 275.6473 14.35449289219101
TAURUS-1 (JINNIUZUO 1)  
1 44530U 19059C   23321.45245055  .00004118  00000+0  10321-2 0  9993
2 44530  98.5639  71.8654 0011776 345.7478  14.3382 14.51892246220860
ZHUHAI-1 03A            
1 44534U 19060A   23321.49676674  .00027462  00000+0  65558-3 0  9998
2 44534  97.4899  79.1999 0017341  62.5481 297.7526 15.41345779231318
ZHUHAI-1 03B            
1 44536U 19060C   23321.60778189  .00028249  00000+0  68440-3 0  9994
2 44536  97.4859  79.6704 0010566  96.0631 273.4001 15.40993594231341
ZHUHAI-1 03C            
1 44537U 19060D   23321.47282937  .00028604  00000+0  66648-3 0  9994
2 44537  97.4842  78.0784 0008954  95.8356 264.3912 15.42186018231329
ZHUHAI-1 03D            
1 44538U 19060E   23321.51858532  .00027401  00000+0  63514-3 0  9993
2 44538  97.4793  77.6136 0006967  94.7662 265.4380 15.42367446231339
ZHUHAI-1 03E            
1 44539U 19060F   23321.54280034  .00030591  00000+0  72275-3 0  9991
2 44539  97.4969  80.0751 0014532  95.7691 326.3335 15.41683977231343
